{"fetched_at":"2026-03-29T16:36:15Z","count":15609,"tles":[{"name":"STARLINK-33699","line1":"1 63328U 25057X   26087.89047181  .00022624  00000+0  82911-3 0  9991","line2":"2 63328  42.9989 274.6499 0001643 262.0011  98.0655 15.27580921 58761","category":"Starlink"}]}